      2.10          N: GNSS NAV DATA                        RINEX VERSION / TYPE
fic2rin                                 06/22/2020 00:17:37 PGM / RUN BY / DATE
                                                            END OF HEADER
18 20  6 21  8  0  0.0 2.260613255203e-04 1.045918907039e-11 0.000000000000e+00
    8.500000000000e+01-1.484375000000e+02 4.126957618636e-09-3.107570394369e+00
   -7.638707756996e-06 6.240633083507e-04 6.517395377159e-06 5.153728216171e+03
    2.880000000000e+04 5.215406417847e-08 2.592364547052e+00-1.490116119385e-08
    9.643295052460e-01 2.552812500000e+02 2.564234693639e+00-7.937830642508e-09
   -1.742929742877e-10 1.000000000000e+00 2.111000000000e+03 0.000000000000e+00
    2.400000000000e+00 0.000000000000e+00-7.916241884232e-09 3.410000000000e+02
    2.160000000000e+04 4.000000000000e+00
 4 20  6 21  8  0  0.0-1.051691360772e-04-4.774847184308e-12 0.000000000000e+00
    6.100000000000e+01 2.531250000000e+00 5.097712340181e-09-2.558507713144e+00
   -2.607703208923e-08 7.778055733070e-04 5.077570676804e-06 5.153657159805e+03
    2.880000000000e+04 3.166496753693e-08-1.588726157987e+00-6.891787052155e-08
    9.594728790852e-01 2.850312500000e+02-2.604951052405e+00-8.183555163635e-09
    9.964700784071e-11 1.000000000000e+00 2.111000000000e+03 0.000000000000e+00
    2.400000000000e+00 0.000000000000e+00-4.190951585770e-09 3.170000000000e+02
    2.208000000000e+04 4.000000000000e+00
19 20  6 21  7 59 44.0-1.423363573849e-04 5.115907697473e-12 0.000000000000e+00
    1.000000000000e+00-1.590625000000e+01 4.303750697063e-09 1.001186397924e+00
   -1.139938831329e-06 9.465664043091e-03 3.892928361893e-07 5.153686803818e+03
    2.878400000000e+04-8.381903171539e-08 1.623660175049e+00-1.825392246246e-07
    9.818261195817e-01 3.897812500000e+02 1.645687085336e+00-8.393921069076e-09
   -2.007226466182e-10 1.000000000000e+00 2.111000000000e+03 0.000000000000e+00
    2.400000000000e+00 0.000000000000e+00-1.536682248116e-08 1.000000000000e+00
    2.370000000000e+04 4.000000000000e+00
29 20  6 21  7 59 44.0-1.327604986727e-04-8.640199666843e-12 0.000000000000e+00
    8.000000000000e+00 8.718750000000e+00 4.195531903601e-09-1.210794485285e+00
    4.023313522339e-07 1.557922689244e-03-1.210719347000e-07 5.153566829681e+03
    2.878400000000e+04-3.911554813385e-08 1.589839301131e+00 4.656612873077e-08
    9.852861563690e-01 3.946250000000e+02 1.983580900678e+00-8.268558704374e-09
   -4.285892810353e-11 1.000000000000e+00 2.111000000000e+03 0.000000000000e+00
    2.400000000000e+00 0.000000000000e+00-9.778887033463e-09 8.000000000000e+00
    2.376000000000e+04 4.000000000000e+00
15 20  6 21  7 59 44.0-2.227989025414e-04 2.614797267597e-12 0.000000000000e+00
    3.000000000000e+00 7.250000000000e+00 5.749882362823e-09-2.394354304525e+00
    4.284083843231e-08 1.234557689168e-02 4.714354872704e-06 5.153690345764e+03
    2.878400000000e+04 1.750886440277e-07-1.727054811268e+00-1.136213541031e-07
    9.277807075048e-01 2.680625000000e+02 8.843566673135e-01-8.335347200668e-09
    3.932306653499e-10 1.000000000000e+00 2.111000000000e+03 0.000000000000e+00
    2.400000000000e+00 0.000000000000e+00-1.071020960808e-08 3.000000000000e+00
    2.397000000000e+04 4.000000000000e+00
32 20  6 21  7 59 44.0 3.038290888071e-04 6.707523425575e-12 0.000000000000e+00
    0.000000000000e+00 5.625000000000e+00 5.165215151944e-09-8.743289007710e-01
    4.321336746216e-07 4.052093718201e-03 4.958361387253e-06 5.153714824677e+03
    2.878400000000e+04 2.421438694000e-08-1.628353864320e+00 4.284083843231e-08
    9.563202174785e-01 2.811875000000e+02-2.430255952658e+00-8.197127157534e-09
    2.292952653539e-10 1.000000000000e+00 2.111000000000e+03 0.000000000000e+00
    2.400000000000e+00 0.000000000000e+00 4.656612873077e-10 0.000000000000e+00
    2.466000000000e+04 4.000000000000e+00
19 20  6 21  9 59 44.0-1.423000358045e-04 5.115907697473e-12 0.000000000000e+00
    2.000000000000e+00-1.275000000000e+01 4.257320191617e-09 2.051186233557e+00
   -9.164214134216e-07 9.465574054047e-03-7.413327693939e-07 5.153689861298e+03
    3.598400000000e+04 1.657754182816e-07 1.623600726447e+00-1.043081283569e-07
    9.818257787218e-01 4.008125000000e+02 1.645857626474e+00-8.143196339671e-09
   -2.192948487964e-10 1.000000000000e+00 2.111000000000e+03 0.000000000000e+00
    2.400000000000e+00 0.000000000000e+00-1.536682248116e-08 2.000000000000e+00
    2.880000000000e+04 4.000000000000e+00
15 20  6 21  9 59 44.0-2.227802760899e-04 2.614797267597e-12 0.000000000000e+00
    8.000000000000e+00 8.906250000000e+00 5.684879655199e-09-1.344197386599e+00
    6.668269634247e-07 1.234571891837e-02 4.414469003677e-06 5.153689756393e+03
    3.598400000000e+04 3.036111593246e-07-1.727114473456e+00 5.960464477539e-08
    9.277830759691e-01 2.695625000000e+02 8.843789153716e-01-8.452494937485e-09
    3.146559638267e-10 1.000000000000e+00 2.111000000000e+03 0.000000000000e+00
    2.400000000000e+00 0.000000000000e+00-1.071020960808e-08 8.000000000000e+00
    2.880000000000e+04 4.000000000000e+00
29 20  6 21  9 59 44.0-1.328228972852e-04-8.640199666843e-12 0.000000000000e+00
    2.900000000000e+01 4.906250000000e+00 4.211961159374e-09-1.608263525488e-01
    2.253800630569e-07 1.557637937367e-03-1.750886440277e-07 5.153565904617e+03
    3.598400000000e+04-8.568167686462e-08 1.589780190463e+00-3.166496753693e-08
    9.852856765318e-01 3.965000000000e+02 1.983857005984e+00-8.252129448601e-09
   -1.139333172086e-10 1.000000000000e+00 2.111000000000e+03 0.000000000000e+00
    2.400000000000e+00 0.000000000000e+00-9.778887033463e-09 2.900000000000e+01
    2.880000000000e+04 4.000000000000e+00
32 20  6 21  9 59 44.0 3.038779832423e-04 6.707523425575e-12 0.000000000000e+00
    2.200000000000e+01 5.000000000000e+00 5.105926968067e-09 1.758054165327e-01
    2.272427082062e-07 4.051904077642e-03 5.202367901802e-06 5.153714416504e+03
    3.598400000000e+04-1.862645149231e-09-1.628412824308e+00 7.078051567078e-08
    9.563218749647e-01 2.797500000000e+02-2.430229895161e+00-8.187483898711e-09
    2.171519023912e-10 1.000000000000e+00 2.111000000000e+03 0.000000000000e+00
    2.400000000000e+00 0.000000000000e+00 4.656612873077e-10 2.200000000000e+01
    2.880000000000e+04 4.000000000000e+00
 1 20  6 21 10  0  0.0 1.360150054097e-05 7.844391802792e-12 0.000000000000e+00
    4.200000000000e+01-1.451250000000e+02 3.688725078777e-09-2.637918298994e+00
   -7.465481758118e-06 9.997074375860e-03 6.670132279396e-06 5.153715547562e+03
    3.600000000000e+04 1.490116119385e-08 2.575449057905e+00-9.313225746155e-08
    9.807230471657e-01 2.614375000000e+02 7.916257910317e-01-7.584601643388e-09
   -1.410773050075e-10 1.000000000000e+00 2.111000000000e+03 0.000000000000e+00
    2.400000000000e+00 0.000000000000e+00 5.122274160385e-09 4.200000000000e+01
    2.880000000000e+04 4.000000000000e+00
 3 20  6 21 10  0  0.0-2.157976850867e-04-1.205080479849e-11 0.000000000000e+00
    3.500000000000e+01-2.590625000000e+01 4.014810090098e-09 2.630854149932e+00
   -1.277774572372e-06 2.940583624877e-03 1.039914786816e-05 5.153538414001e+03
    3.600000000000e+04 4.097819328308e-08-2.667947536484e+00-7.264316082001e-08
    9.661424513454e-01 1.820625000000e+02 7.280210504847e-01-7.614602893061e-09
    6.585988618576e-10 1.000000000000e+00 2.111000000000e+03 0.000000000000e+00
    2.400000000000e+00 0.000000000000e+00 1.862645149231e-09 3.500000000000e+01
    2.880000000000e+04 4.000000000000e+00
 2 20  6 21 10  0  0.0-4.755058325827e-04-5.911715561524e-12 0.000000000000e+00
    1.080000000000e+02-1.510312500000e+02 4.139815297067e-09-2.396696320799e+00
   -7.616356015205e-06 1.971503789537e-02 5.960464477539e-06 5.153726812363e+03
    3.600000000000e+04 2.477318048477e-07 2.498661940602e+00 1.862645149231e-08
    9.596382297899e-01 2.609375000000e+02-1.622913605529e+00-7.649961508746e-09
   -2.071514858337e-10 1.000000000000e+00 2.111000000000e+03 0.000000000000e+00
    3.400000000000e+00 0.000000000000e+00-1.769512891769e-08 1.080000000000e+02
    2.880000000000e+04 4.000000000000e+00
 5 20  6 21 10  0  0.0-1.508463174105e-05-7.958078640513e-13 0.000000000000e+00
    9.200000000000e+01-2.275000000000e+01 4.378039505776e-09 2.912904094376e-01
   -1.095235347748e-06 5.959047353826e-03 1.068413257599e-05 5.153685205460e+03
    3.600000000000e+04-7.636845111847e-08-2.700167315321e+00 1.583248376846e-07
    9.530701328423e-01 1.695625000000e+02 8.062513715830e-01-7.861398887390e-09
    6.396695019452e-10 1.000000000000e+00 2.111000000000e+03 0.000000000000e+00
    2.400000000000e+00 0.000000000000e+00-1.117587089539e-08 9.200000000000e+01
    2.880000000000e+04 4.000000000000e+00
 7 20  6 21 10  0  0.0-3.094901330769e-04-8.753886504564e-12 0.000000000000e+00
    8.900000000000e+01 2.843750000000e+00 4.654122434309e-09 2.895173202488e+00
    7.823109626770e-08 1.401069108397e-02 1.009553670883e-05 5.153661964417e+03
    3.600000000000e+04-7.264316082001e-08-5.627201172202e-01-1.788139343262e-07
    9.531699009295e-01 1.822812500000e+02-2.388366746136e+00-7.672462446000e-09
   -5.621662736246e-10 1.000000000000e+00 2.111000000000e+03 0.000000000000e+00
    2.400000000000e+00 0.000000000000e+00-1.117587089539e-08 8.900000000000e+01
    2.880000000000e+04 4.000000000000e+00
10 20  6 21 10  0  0.0-3.776364028454e-04-1.102762325900e-11 0.000000000000e+00
    9.900000000000e+01-3.753125000000e+01 4.108028258723e-09 1.557131406510e+00
   -1.907348632812e-06 5.637131631374e-03 1.058354973793e-05 5.153670541763e+03
    3.600000000000e+04-5.960464477539e-08-2.670969989604e+00 9.685754776001e-08
    9.660870696557e-01 1.769062500000e+02-2.636495627254e+00-7.681034231621e-09
    5.860958418158e-10 1.000000000000e+00 2.111000000000e+03 0.000000000000e+00
    3.400000000000e+00 0.000000000000e+00 2.328306436539e-09 9.900000000000e+01
    2.880000000000e+04 4.000000000000e+00
